[{"OBJECT_NAME":"STARLINK-30516","OBJECT_ID":"2023-151W","EPOCH":"2026-03-09T04:28:17.903712","MEAN_MOTION":15.02532534,"ECCENTRICITY":0.00013964,"INCLINATION":43.0067,"RA_OF_ASC_NODE":354.6049,"ARG_OF_PERICENTER":263.8526,"MEAN_ANOMALY":96.2158,"EPHEMERIS_TYPE":0,"CLASSIFICATION_TYPE":"U","NORAD_CAT_ID":57984,"ELEMENT_SET_NO":999,"REV_AT_EPOCH":13550,"BSTAR":-5.3591274e-5,"MEAN_MOTION_DOT":-9.27e-6,"MEAN_MOTION_DDOT":0},{"OBJECT_NAME":"COSMOS 2251 DEB","OBJECT_ID":"1993-036BRU","EPOCH":"2026-02-21T14:09:45.153216","MEAN_MOTION":14.99001579,"ECCENTRICITY":0.0017259,"INCLINATION":74.0061,"RA_OF_ASC_NODE":146.9269,"ARG_OF_PERICENTER":277.3195,"MEAN_ANOMALY":147.2685,"EPHEMERIS_TYPE":0,"CLASSIFICATION_TYPE":"U","NORAD_CAT_ID":38062,"ELEMENT_SET_NO":999,"REV_AT_EPOCH":64090,"BSTAR":0.0019091,"MEAN_MOTION_DOT":0.00023247,"MEAN_MOTION_DDOT":0}]
